[{"OBJECT_NAME":"STARLINK-4336","OBJECT_ID":"2022-077J","EPOCH":"2026-03-09T23:14:53.586528","MEAN_MOTION":15.01260982,"ECCENTRICITY":0.00032841,"INCLINATION":97.6018,"RA_OF_ASC_NODE":250.48,"ARG_OF_PERICENTER":65.2497,"MEAN_ANOMALY":294.9068,"EPHEMERIS_TYPE":0,"CLASSIFICATION_TYPE":"U","NORAD_CAT_ID":53051,"ELEMENT_SET_NO":999,"REV_AT_EPOCH":20095,"BSTAR":-5.879449e-6,"MEAN_MOTION_DOT":-1.34e-6,"MEAN_MOTION_DDOT":0},{"OBJECT_NAME":"COSMOS 397 DEB","OBJECT_ID":"1971-015K","EPOCH":"2026-03-09T22:19:18.882624","MEAN_MOTION":13.64687983,"ECCENTRICITY":0.06428394,"INCLINATION":65.8167,"RA_OF_ASC_NODE":317.2661,"ARG_OF_PERICENTER":130.2225,"MEAN_ANOMALY":235.6932,"EPHEMERIS_TYPE":0,"CLASSIFICATION_TYPE":"U","NORAD_CAT_ID":5016,"ELEMENT_SET_NO":999,"REV_AT_EPOCH":63965,"BSTAR":0.0010600435,"MEAN_MOTION_DOT":3.54e-5,"MEAN_MOTION_DDOT":0}]
